[{"OBJECT_NAME":"STARLINK-31029","OBJECT_ID":"2024-002H","EPOCH":"2026-03-09T17:28:20.279136","MEAN_MOTION":15.30194615,"ECCENTRICITY":0.00010166,"INCLINATION":53.1599,"RA_OF_ASC_NODE":229.5833,"ARG_OF_PERICENTER":81.6731,"MEAN_ANOMALY":278.4385,"EPHEMERIS_TYPE":0,"CLASSIFICATION_TYPE":"U","NORAD_CAT_ID":58712,"ELEMENT_SET_NO":999,"REV_AT_EPOCH":12202,"BSTAR":4.1851412e-5,"MEAN_MOTION_DOT":8.8e-6,"MEAN_MOTION_DDOT":0},{"OBJECT_NAME":"COSMOS 2535 DEB","OBJECT_ID":"2019-039M","EPOCH":"2026-03-08T03:25:35.903424","MEAN_MOTION":15.28322551,"ECCENTRICITY":0.0014917,"INCLINATION":97.5619,"RA_OF_ASC_NODE":139.2722,"ARG_OF_PERICENTER":329.0964,"MEAN_ANOMALY":30.9396,"EPHEMERIS_TYPE":0,"CLASSIFICATION_TYPE":"U","NORAD_CAT_ID":44641,"ELEMENT_SET_NO":999,"REV_AT_EPOCH":35167,"BSTAR":0.0011539757,"MEAN_MOTION_DOT":0.0003196,"MEAN_MOTION_DDOT":0}]
